STARLINK-3391           
1 51117U 22005P   26019.63723112 -.00000780  00000+0 -30925-4 0  9996
2 51117  53.2184 149.2125 0001271  83.1479 276.9658 15.08849474221476
STARLINK-3394           
1 51118U 22005Q   26019.73291207 -.00000211  00000+0  48344-5 0  9996
2 51118  53.2175 148.8986 0000957  84.6757 275.4344 15.08849220221488
STARLINK-3398           
1 51120U 22005S   26019.63819305 -.00002539  00000+0 -14155-3 0  9990
2 51120  53.2180 149.3301 0000876  88.0014 272.1079 15.08834463221479
STARLINK-3399           
1 51121U 22005T   26019.65291232 -.00000265  00000+0  14147-5 0  9992
2 51121  53.2182 149.2679 0001185  86.8464 273.2664 15.08836404221477
STARLINK-3392           
1 51123U 22005V   26019.76603643 -.00001463  00000+0 -73852-4 0  9998
2 51123  53.2174 148.7454 0001485 101.5317 258.5843 15.08838572221495
STARLINK-3389           
1 51124U 22005W   26019.67680460 -.00000278  00000+0  65381-6 0  9993
2 51124  53.2190 159.1505 0001455  83.2545 276.8613 15.08843331221344
STARLINK-3387           
1 51125U 22005X   26019.66671042 -.00000478  00000+0 -11934-4 0  9995
2 51125  53.2172 159.2039 0001403  89.2442 270.8711 15.08841594221323
STARLINK-3386           
1 51126U 22005Y   26019.67407228 -.00001673  00000+0 -87074-4 0  9996
2 51126  53.2170 159.1715 0001143  82.3335 277.7787 15.08837095221340
STARLINK-3370           
1 51127U 22005Z   26019.67038759 -.00000033  00000+0  16036-4 0  9994
2 51127  53.2169 159.1859 0001253  90.5182 269.5954 15.08841629221333
STARLINK-3400           
1 51128U 22005AA  26019.65103024 -.00004187  00000+0 -24501-3 0  9991
2 51128  53.2170 159.2619 0001274  94.2505 265.8633 15.08859293221322
STARLINK-3396           
1 51129U 22005AB  26019.67775206 -.00001134  00000+0 -53173-4 0  9998
2 51129  53.2168 159.1459 0001258  87.4061 272.7075 15.08843640221331
STARLINK-3395           
1 51130U 22005AC  26019.79455750 -.00000825  00000+0 -33775-4 0  9994
2 51130  53.2180 158.6193 0001318  88.9447 271.1696 15.08834253221340
STARLINK-3388           
1 51131U 22005AD  26019.65471739  .00001434  00000+0  10816-3 0  9990
2 51131  53.2183 159.2453 0001231  94.3723 265.7410 15.08833322221329
STARLINK-3393           
1 51132U 22005AE  26019.65838080 -.00001563  00000+0 -80068-4 0  9999
2 51132  53.2167 159.2277 0001422  91.0677 269.0478 15.08854690221322
STARLINK-3356           
1 51133U 22005AF  26019.64735128  .00001713  00000+0  12568-3 0  9992
2 51133  53.2170 159.2786 0001300  92.1635 267.9506 15.08841691221329
STARLINK-3363           
1 51135U 22005AH  26019.63358063  .00000372  00000+0  41440-4 0  9994
2 51135  53.2170 159.2390 0001282  86.9893 273.1246 15.08837652221320
