[{"OBJECT_NAME":"STARLINK-3391","OBJECT_ID":"2022-005P","EPOCH":"2026-01-19T15:17:36.768768","MEAN_MOTION":15.08849474,"ECCENTRICITY":0.00012717,"INCLINATION":53.2184,"RA_OF_ASC_NODE":149.2125,"ARG_OF_PERICENTER":83.1479,"MEAN_ANOMALY":276.9658,"EPHEMERIS_TYPE":0,"CLASSIFICATION_TYPE":"U","NORAD_CAT_ID":51117,"ELEMENT_SET_NO":999,"REV_AT_EPOCH":22147,"BSTAR":-3.0925326e-5,"MEAN_MOTION_DOT":-7.8e-6,"MEAN_MOTION_DDOT":0},{"OBJECT_NAME":"STARLINK-3394","OBJECT_ID":"2022-005Q","EPOCH":"2026-01-19T17:35:23.602848","MEAN_MOTION":15.0884922,"ECCENTRICITY":9.574e-5,"INCLINATION":53.2175,"RA_OF_ASC_NODE":148.8986,"ARG_OF_PERICENTER":84.6757,"MEAN_ANOMALY":275.4344,"EPHEMERIS_TYPE":0,"CLASSIFICATION_TYPE":"U","NORAD_CAT_ID":51118,"ELEMENT_SET_NO":999,"REV_AT_EPOCH":22148,"BSTAR":4.834379e-6,"MEAN_MOTION_DOT":-2.11e-6,"MEAN_MOTION_DDOT":0},{"OBJECT_NAME":"STARLINK-3398","OBJECT_ID":"2022-005S","EPOCH":"2026-01-19T15:18:59.879520","MEAN_MOTION":15.08834463,"ECCENTRICITY":8.769e-5,"INCLINATION":53.218,"RA_OF_ASC_NODE":149.3301,"ARG_OF_PERICENTER":88.0014,"MEAN_ANOMALY":272.1079,"EPHEMERIS_TYPE":0,"CLASSIFICATION_TYPE":"U","NORAD_CAT_ID":51120,"ELEMENT_SET_NO":999,"REV_AT_EPOCH":22147,"BSTAR":-0.00014155262,"MEAN_MOTION_DOT":-2.539e-5,"MEAN_MOTION_DDOT":0},{"OBJECT_NAME":"STARLINK-3399","OBJECT_ID":"2022-005T","EPOCH":"2026-01-19T15:40:11.624448","MEAN_MOTION":15.08836404,"ECCENTRICITY":0.00011857,"INCLINATION":53.2182,"RA_OF_ASC_NODE":149.2679,"ARG_OF_PERICENTER":86.8464,"MEAN_ANOMALY":273.2664,"EPHEMERIS_TYPE":0,"CLASSIFICATION_TYPE":"U","NORAD_CAT_ID":51121,"ELEMENT_SET_NO":999,"REV_AT_EPOCH":22147,"BSTAR":1.414746e-6,"MEAN_MOTION_DOT":-2.65e-6,"MEAN_MOTION_DDOT":0},{"OBJECT_NAME":"STARLINK-3392","OBJECT_ID":"2022-005V","EPOCH":"2026-01-19T18:23:05.547552","MEAN_MOTION":15.08838572,"ECCENTRICITY":0.00014856,"INCLINATION":53.2174,"RA_OF_ASC_NODE":148.7454,"ARG_OF_PERICENTER":101.5317,"MEAN_ANOMALY":258.5843,"EPHEMERIS_TYPE":0,"CLASSIFICATION_TYPE":"U","NORAD_CAT_ID":51123,"ELEMENT_SET_NO":999,"REV_AT_EPOCH":22149,"BSTAR":-7.385221e-5,"MEAN_MOTION_DOT":-1.463e-5,"MEAN_MOTION_DDOT":0},{"OBJECT_NAME":"STARLINK-3389","OBJECT_ID":"2022-005W","EPOCH":"2026-01-19T16:14:35.917440","MEAN_MOTION":15.08843331,"ECCENTRICITY":0.0001455,"INCLINATION":53.219,"RA_OF_ASC_NODE":159.1505,"ARG_OF_PERICENTER":83.2545,"MEAN_ANOMALY":276.8613,"EPHEMERIS_TYPE":0,"CLASSIFICATION_TYPE":"U","NORAD_CAT_ID":51124,"ELEMENT_SET_NO":999,"REV_AT_EPOCH":22134,"BSTAR":6.53805e-7,"MEAN_MOTION_DOT":-2.78e-6,"MEAN_MOTION_DDOT":0},{"OBJECT_NAME":"STARLINK-3387","OBJECT_ID":"2022-005X","EPOCH":"2026-01-19T16:00:03.780288","MEAN_MOTION":15.08841594,"ECCENTRICITY":0.00014031,"INCLINATION":53.2172,"RA_OF_ASC_NODE":159.2039,"ARG_OF_PERICENTER":89.2442,"MEAN_ANOMALY":270.8711,"EPHEMERIS_TYPE":0,"CLASSIFICATION_TYPE":"U","NORAD_CAT_ID":51125,"ELEMENT_SET_NO":999,"REV_AT_EPOCH":22132,"BSTAR":-1.1933586e-5,"MEAN_MOTION_DOT":-4.78e-6,"MEAN_MOTION_DDOT":0},{"OBJECT_NAME":"STARLINK-3386","OBJECT_ID":"2022-005Y","EPOCH":"2026-01-19T16:10:39.844992","MEAN_MOTION":15.08837095,"ECCENTRICITY":0.00011436,"INCLINATION":53.217,"RA_OF_ASC_NODE":159.1715,"ARG_OF_PERICENTER":82.3335,"MEAN_ANOMALY":277.7787,"EPHEMERIS_TYPE":0,"CLASSIFICATION_TYPE":"U","NORAD_CAT_ID":51126,"ELEMENT_SET_NO":999,"REV_AT_EPOCH":22134,"BSTAR":-8.7074494e-5,"MEAN_MOTION_DOT":-1.673e-5,"MEAN_MOTION_DDOT":0},{"OBJECT_NAME":"STARLINK-3370","OBJECT_ID":"2022-005Z","EPOCH":"2026-01-19T16:05:21.487776","MEAN_MOTION":15.08841629,"ECCENTRICITY":0.00012534,"INCLINATION":53.2169,"RA_OF_ASC_NODE":159.1859,"ARG_OF_PERICENTER":90.5182,"MEAN_ANOMALY":269.5954,"EPHEMERIS_TYPE":0,"CLASSIFICATION_TYPE":"U","NORAD_CAT_ID":51127,"ELEMENT_SET_NO":999,"REV_AT_EPOCH":22133,"BSTAR":1.6035861e-5,"MEAN_MOTION_DOT":-3.3e-7,"MEAN_MOTION_DDOT":0},{"OBJECT_NAME":"STARLINK-3400","OBJECT_ID":"2022-005AA","EPOCH":"2026-01-19T15:37:29.012736","MEAN_MOTION":15.08859293,"ECCENTRICITY":0.00012744,"INCLINATION":53.217,"RA_OF_ASC_NODE":159.2619,"ARG_OF_PERICENTER":94.2505,"MEAN_ANOMALY":265.8633,"EPHEMERIS_TYPE":0,"CLASSIFICATION_TYPE":"U","NORAD_CAT_ID":51128,"ELEMENT_SET_NO":999,"REV_AT_EPOCH":22132,"BSTAR":-0.00024501434,"MEAN_MOTION_DOT":-4.187e-5,"MEAN_MOTION_DDOT":0},{"OBJECT_NAME":"STARLINK-3396","OBJECT_ID":"2022-005AB","EPOCH":"2026-01-19T16:15:57.777984","MEAN_MOTION":15.0884364,"ECCENTRICITY":0.00012588,"INCLINATION":53.2168,"RA_OF_ASC_NODE":159.1459,"ARG_OF_PERICENTER":87.4061,"MEAN_ANOMALY":272.7075,"EPHEMERIS_TYPE":0,"CLASSIFICATION_TYPE":"U","NORAD_CAT_ID":51129,"ELEMENT_SET_NO":999,"REV_AT_EPOCH":22133,"BSTAR":-5.3173493e-5,"MEAN_MOTION_DOT":-1.134e-5,"MEAN_MOTION_DDOT":0},{"OBJECT_NAME":"STARLINK-3395","OBJECT_ID":"2022-005AC","EPOCH":"2026-01-19T19:04:09.768000","MEAN_MOTION":15.08834253,"ECCENTRICITY":0.00013189,"INCLINATION":53.218,"RA_OF_ASC_NODE":158.6193,"ARG_OF_PERICENTER":88.9447,"MEAN_ANOMALY":271.1696,"EPHEMERIS_TYPE":0,"CLASSIFICATION_TYPE":"U","NORAD_CAT_ID":51130,"ELEMENT_SET_NO":999,"REV_AT_EPOCH":22134,"BSTAR":-3.3774972e-5,"MEAN_MOTION_DOT":-8.25e-6,"MEAN_MOTION_DDOT":0},{"OBJECT_NAME":"STARLINK-3388","OBJECT_ID":"2022-005AD","EPOCH":"2026-01-19T15:42:47.582496","MEAN_MOTION":15.08833322,"ECCENTRICITY":0.00012318,"INCLINATION":53.2183,"RA_OF_ASC_NODE":159.2453,"ARG_OF_PERICENTER":94.3723,"MEAN_ANOMALY":265.741,"EPHEMERIS_TYPE":0,"CLASSIFICATION_TYPE":"U","NORAD_CAT_ID":51131,"ELEMENT_SET_NO":999,"REV_AT_EPOCH":22132,"BSTAR":0.00010815801,"MEAN_MOTION_DOT":1.434e-5,"MEAN_MOTION_DDOT":0},{"OBJECT_NAME":"STARLINK-3393","OBJECT_ID":"2022-005AE","EPOCH":"2026-01-19T15:48:04.101120","MEAN_MOTION":15.0885469,"ECCENTRICITY":0.00014229,"INCLINATION":53.2167,"RA_OF_ASC_NODE":159.2277,"ARG_OF_PERICENTER":91.0677,"MEAN_ANOMALY":269.0478,"EPHEMERIS_TYPE":0,"CLASSIFICATION_TYPE":"U","NORAD_CAT_ID":51132,"ELEMENT_SET_NO":999,"REV_AT_EPOCH":22132,"BSTAR":-8.0067636e-5,"MEAN_MOTION_DOT":-1.563e-5,"MEAN_MOTION_DDOT":0},{"OBJECT_NAME":"STARLINK-3356","OBJECT_ID":"2022-005AF","EPOCH":"2026-01-19T15:32:11.150592","MEAN_MOTION":15.08841691,"ECCENTRICITY":0.00013008,"INCLINATION":53.217,"RA_OF_ASC_NODE":159.2786,"ARG_OF_PERICENTER":92.1635,"MEAN_ANOMALY":267.9506,"EPHEMERIS_TYPE":0,"CLASSIFICATION_TYPE":"U","NORAD_CAT_ID":51133,"ELEMENT_SET_NO":999,"REV_AT_EPOCH":22132,"BSTAR":0.00012568041,"MEAN_MOTION_DOT":1.713e-5,"MEAN_MOTION_DDOT":0},{"OBJECT_NAME":"STARLINK-3363","OBJECT_ID":"2022-005AH","EPOCH":"2026-01-19T15:12:21.366432","MEAN_MOTION":15.08837652,"ECCENTRICITY":0.00012824,"INCLINATION":53.217,"RA_OF_ASC_NODE":159.239,"ARG_OF_PERICENTER":86.9893,"MEAN_ANOMALY":273.1246,"EPHEMERIS_TYPE":0,"CLASSIFICATION_TYPE":"U","NORAD_CAT_ID":51135,"ELEMENT_SET_NO":999,"REV_AT_EPOCH":22132,"BSTAR":4.1440428e-5,"MEAN_MOTION_DOT":3.72e-6,"MEAN_MOTION_DDOT":0}]
